[{"OBJECT_NAME":"VNREDSAT 1","OBJECT_ID":"2013-021B","EPOCH":"2026-03-09T23:27:54.067104","MEAN_MOTION":14.6507341,"ECCENTRICITY":0.00016268,"INCLINATION":97.921,"RA_OF_ASC_NODE":126.138,"ARG_OF_PERICENTER":85.4971,"MEAN_ANOMALY":274.6418,"EPHEMERIS_TYPE":0,"CLASSIFICATION_TYPE":"U","NORAD_CAT_ID":39160,"ELEMENT_SET_NO":999,"REV_AT_EPOCH":68576,"BSTAR":0.00011871025,"MEAN_MOTION_DOT":5.92e-6,"MEAN_MOTION_DDOT":0},{"OBJECT_NAME":"FENGYUN 1C DEB","OBJECT_ID":"1999-025BSE","EPOCH":"2026-03-09T04:25:37.540128","MEAN_MOTION":14.35360651,"ECCENTRICITY":0.01415354,"INCLINATION":99.6282,"RA_OF_ASC_NODE":214.5704,"ARG_OF_PERICENTER":97.9015,"MEAN_ANOMALY":263.8258,"EPHEMERIS_TYPE":0,"CLASSIFICATION_TYPE":"U","NORAD_CAT_ID":31374,"ELEMENT_SET_NO":999,"REV_AT_EPOCH":97292,"BSTAR":0.0036053812,"MEAN_MOTION_DOT":0.00011551,"MEAN_MOTION_DDOT":0}]
